[
    [
        "GPS BIIR-5  (PRN 22)",
        "1 26407U 00040A   26133.13256303  .00000022  00000+0  00000+0 0  9993",
        "2 26407  54.8574 216.5547 0121422 302.3491 230.9163  2.00557372189247"
    ],
    [
        "GPS BIIR-8  (PRN 16)",
        "1 27663U 03005A   26132.68867929  .00000019  00000+0  00000+0 0  9999",
        "2 27663  54.8885 216.3793 0148037  53.0066 295.2458  2.00562440170598"
    ],
    [
        "GPS BIIR-11 (PRN 19)",
        "1 28190U 04009A   26132.50489429 -.00000033  00000+0  00000+0 0  9993",
        "2 28190  54.8606 277.1282 0114487 171.5044 198.0265  2.00555833162233"
    ],
    [
        "GPS BIIR-13 (PRN 02)",
        "1 28474U 04045A   26133.15165181 -.00000049  00000+0  00000+0 0  9993",
        "2 28474  55.1565 326.3071 0169928 315.4859 226.0967  2.00554259157722"
    ],
    [
        "GPS BIIRM-1 (PRN 17)",
        "1 28874U 05038A   26132.45572999 -.00000032  00000+0  00000+0 0  9993",
        "2 28874  54.9086 274.6188 0127712 295.9405  65.2495  2.00568116151123"
    ],
    [
        "GPS BIIRM-2 (PRN 31)",
        "1 29486U 06042A   26133.12393664  .00000115  00000+0  00000+0 0  9995",
        "2 29486  54.7054 152.7310 0106151  53.7087 327.8882  2.00571828143693"
    ],
    [
        "GPS BIIRM-3 (PRN 12)",
        "1 29601U 06052A   26132.51960272  .00000019  00000+0  00000+0 0  9995",
        "2 29601  54.9400 215.4201 0085938  90.4951 270.5391  2.00556149142699"
    ],
    [
        "GPS BIIRM-4 (PRN 15)",
        "1 32260U 07047A   26132.32583779  .00000011  00000+0  00000+0 0  9999",
        "2 32260  54.0697  81.5432 0165247  86.7265 275.1401  2.00557039136098"
    ],
    [
        "GPS BIIRM-5 (PRN 29)",
        "1 32384U 07062A   26131.14064606 -.00000028  00000+0  00000+0 0  9994",
        "2 32384  55.0627 275.6413 0034959 163.2299 188.0453  2.00557804134768"
    ],
    [
        "GPS BIIRM-6 (PRN 07)",
        "1 32711U 08012A   26132.24018750  .00000112  00000+0  00000+0 0  9998",
        "2 32711  54.4913 151.3609 0210313 247.3499 110.4697  2.00571463133031"
    ],
    [
        "GPS BIIRM-8 (PRN 05)",
        "1 35752U 09043A   26132.37835330 -.00000073  00000+0  00000+0 0  9993",
        "2 35752  56.1887  28.8585 0053300  81.8321  30.2600  2.00556186122648"
    ],
    [
        "GPS BIIF-1  (PRN 25)",
        "1 36585U 10022A   26132.56484807  .00000028  00000+0  00000+0 0  9996",
        "2 36585  54.2742 209.9972 0126470  66.1094 298.1774  2.00560642116884"
    ],
    [
        "GPS BIIF-3  (PRN 24)",
        "1 38833U 12053A   26132.41947646  .00000112  00000+0  00000+0 0  9993",
        "2 38833  53.5786 145.0646 0178553  65.3334 296.5679  2.00566903 98721"
    ],
    [
        "GPS BIIF-4  (PRN 27)",
        "1 39166U 13023A   26132.28545703 -.00000032  00000+0  00000+0 0  9996",
        "2 39166  54.5335 270.4356 0141834  50.8211 310.4083  2.00563658 95162"
    ],
    [
        "GPS BIIF-5  (PRN 30)",
        "1 39533U 14008A   26132.78518066  .00000112  00000+0  00000+0 0  9993",
        "2 39533  53.6480 150.7637 0084060 230.5716 128.7398  2.00557533 88972"
    ],
    [
        "GPS BIIF-6  (PRN 06)",
        "1 39741U 14026A   26132.06352961 -.00000048  00000+0  00000+0 0  9994",
        "2 39741  56.5151 332.9240 0038649 326.8516  32.9397  2.00563664 87812"
    ],
    [
        "GPS BIIF-7  (PRN 09)",
        "1 40105U 14045A   26132.15457572  .00000035  00000+0  00000+0 0  9990",
        "2 40105  55.3304  89.8998 0032025 118.8106 241.4921  2.00555998 85357"
    ],
    [
        "GPS BIIF-8  (PRN 03)",
        "1 40294U 14068A   26132.02736293 -.00000070  00000+0  00000+0 0  9990",
        "2 40294  56.9638  32.3482 0065949  69.3361 291.3971  2.00573983 84484"
    ],
    [
        "GPS BIIF-9  (PRN 26)",
        "1 40534U 15013A   26133.16026235  .00000041  00000+0  00000+0 0  9999",
        "2 40534  53.1714 205.6264 0108975  40.0205 320.8447  2.00553462 81122"
    ],
    [
        "GPS BIIF-10 (PRN 08)",
        "1 40730U 15033A   26131.82366543 -.00000031  00000+0  00000+0 0  9999",
        "2 40730  54.0122 268.5852 0115011  30.0367 330.5973  2.00558108 79267"
    ],
    [
        "GPS BIIF-11 (PRN 10)",
        "1 41019U 15062A   26132.87823252 -.00000070  00000+0  00000+0 0  9996",
        "2 41019  56.9367  32.1717 0111286 231.3768 127.6514  2.00566935 77122"
    ],
    [
        "GPS BIIF-12 (PRN 32)",
        "1 41328U 16007A   26132.96693977  .00000032  00000+0  00000+0 0  9995",
        "2 41328  55.5031  90.8552 0096124 247.2479 111.7128  2.00553357 75132"
    ],
    [
        "GPS BIII-1  (PRN 04)",
        "1 43873U 18109A   26132.86759343  .00000039  00000+0  00000+0 0  9993",
        "2 43873  55.6611  93.5799 0038040 198.7288 342.8477  2.00560033 54363"
    ],
    [
        "GPS BIII-2  (PRN 18)",
        "1 44506U 19056A   26130.25825404 -.00000053  00000+0  00000+0 0  9999",
        "2 44506  55.6545 332.6508 0060147 197.3681 162.7587  2.00569435 49318"
    ],
    [
        "GPS BIII-3  (PRN 23)",
        "1 45854U 20041A   26131.60465042 -.00000072  00000+0  00000+0 0  9991",
        "2 45854  56.6469  30.3638 0062614 204.8525 347.3313  2.00559506 43308"
    ],
    [
        "GPS BIII-4  (PRN 14)",
        "1 46826U 20078A   26129.38239204  .00000003  00000+0  00000+0 0  9995",
        "2 46826  53.9857 212.3527 0071735 206.1053 156.6468  2.00564987 40738"
    ],
    [
        "GPS BIII-5  (PRN 11)",
        "1 48859U 21054A   26129.62249818 -.00000058  00000+0  00000+0 0  9998",
        "2 48859  55.1920 334.0106 0024301 229.3466 132.5665  2.00571668 35985"
    ],
    [
        "GPS BIII-6  (PRN 28)",
        "1 55268U 23009A   26133.16859779  .00000117  00000+0  00000+0 0  9994",
        "2 55268  55.1171 149.8956 0005988 314.6072 125.6860  2.00573878 24546"
    ],
    [
        "GPS BIII-7  (PRN 01)",
        "1 62339U 24242A   26132.18781948 -.00000054  00000+0  00000+0 0  9995",
        "2 62339  54.8657 335.6414 0017084   3.1785 171.5342  2.00570893 10536"
    ],
    [
        "GPS BIII-8  (PRN 21)",
        "1 64202U 25116A   26120.52613794 -.00000106  00000+0  00000+0 0  9993",
        "2 64202  55.2044  33.0485 0009186 336.4638 239.4024  2.00549603  6915"
    ],
    [
        "GPS BIII-9  (PRN 20)",
        "1 67588U 26017A   26131.30387553  .00000038  00000+0  00000+0 0  9996",
        "2 67588  55.0654  90.2350 0023085 255.2038 104.5234  2.00571918430877"
    ]
]